[{"OBJECT_NAME":"STARLINK-4050","OBJECT_ID":"2022-086AJ","EPOCH":"2026-03-09T15:22:30.651456","MEAN_MOTION":15.08841932,"ECCENTRICITY":0.0001436,"INCLINATION":53.2179,"RA_OF_ASC_NODE":184.3421,"ARG_OF_PERICENTER":84.6806,"MEAN_ANOMALY":275.435,"EPHEMERIS_TYPE":0,"CLASSIFICATION_TYPE":"U","NORAD_CAT_ID":53274,"ELEMENT_SET_NO":999,"REV_AT_EPOCH":20119,"BSTAR":-3.5815e-5,"MEAN_MOTION_DOT":-8.58e-6,"MEAN_MOTION_DDOT":0},{"OBJECT_NAME":"QPS-SAR-7 (TSUKUYOMI-II)","OBJECT_ID":"2024-066F","EPOCH":"2026-03-09T22:44:25.024704","MEAN_MOTION":15.07520552,"ECCENTRICITY":3.06e-5,"INCLINATION":45.6053,"RA_OF_ASC_NODE":45.6252,"ARG_OF_PERICENTER":310.671,"MEAN_ANOMALY":49.4148,"EPHEMERIS_TYPE":0,"CLASSIFICATION_TYPE":"U","NORAD_CAT_ID":59447,"ELEMENT_SET_NO":999,"REV_AT_EPOCH":10524,"BSTAR":0.00063712098,"MEAN_MOTION_DOT":9.59e-5,"MEAN_MOTION_DDOT":0}]
